*******************************************************************************
Ephemeris / WWW_USER Mon Mar 24 09:20:16 2025 Pasadena, USA      / Horizons    
*******************************************************************************
Target body name: 341764 (2007 VZ326)             {source: JPL#18}
Center body name: Earth (399)                     {source: DE441}
Center-site name: Mauna Kea
*******************************************************************************
Start time      : A.D. 2018-Nov-21 03:51:00.0000 UT      
Stop  time      : A.D. 2018-Nov-21 16:24:00.0000 UT      
Step-size       : 1 minutes
*******************************************************************************
Target pole/equ : undefined
Target radii    : undefined                                                    
Center geodetic : 204.5278, 19.8260847, 4.21024   {E-lon(deg),Lat(deg),Alt(km)}
Center cylindric: 204.5278, 6006.35451, 2151.0229 {E-lon(deg),Dxy(km),Dz(km)}
Center pole/equ : ITRF93                          {East-longitude positive}
Center radii    : 6378.137, 6378.137, 6356.752 km {Equator_a, b, pole_c}       
Target primary  : Sun
Vis. interferer : MOON (R_eq= 1737.400) km        {source: DE441}
Rel. light bend : Sun                             {source: DE441}
Rel. lght bnd GM: 1.3271E+11 km^3/s^2                                          
Small-body perts: Yes                             {source: SB441-N16}
Atmos refraction: NO (AIRLESS)
RA format       : HMS
Time format     : CAL 
Calendar mode   : Mixed Julian/Gregorian
RTS-only print  : NO       
EOP file        : eop.250321.p250617                                           
EOP coverage    : DATA-BASED 1962-JAN-20 TO 2025-MAR-21. PREDICTS-> 2025-JUN-16
Units conversion: 1 au= 149597870.700 km, c= 299792.458 km/s, 1 day= 86400.0 s 
Table cut-offs 1: Elevation (-90.0deg=NO ),Airmass (>38.000=NO), Daylight (YES)
Table cut-offs 2: Solar elongation (  0.0,180.0=NO ),Local Hour Angle( 0.0=NO )
Table cut-offs 3: RA/DEC angular rate (     0.0=NO )                           
*******************************************************************************
Initial IAU76/J2000 heliocentric ecliptic osculating elements (au, days, deg.):
  EPOCH=  2458738.5 ! 2019-Sep-12.00 (TDB)         Residual RMS= .13886        
   EC= .1008373990761695   QR= 2.768240023430626   TP= 2458584.3440952813      
   OM= 228.7009686323446   W=  245.4004729743531   IN= 4.232471987434818       
  Equivalent ICRF heliocentric cartesian coordinates (au, au/d):
   X=-2.388613100272569E+00  Y= 1.431394755664809E+00  Z= 3.975078424350988E-01
  VX=-6.081658482309184E-03 VY=-8.102092841560219E-03 VZ=-3.413222734767960E-03
Asteroid physical parameters (km, seconds, rotational period in hours):        
   GM= n.a.                RAD= n.a.               ROTPER= n.a.                
   H= 16.54                G= .150                 B-V= n.a.                   
                           ALBEDO= n.a.            STYP= n.a.                  
*******************************************************************************
 Date__(UT)__HR:MN     R.A._________(ICRF)_________DEC
******************************************************
$$SOE
 2018-Nov-21 14:06  m  06 19 56.751659 +19 55 46.88224
 2018-Nov-21 14:07  m  06 19 56.731038 +19 55 46.80617
 2018-Nov-21 14:08  m  06 19 56.710418 +19 55 46.73007
 2018-Nov-21 14:09  m  06 19 56.689800 +19 55 46.65395
 2018-Nov-21 14:10  m  06 19 56.669183 +19 55 46.57781
 2018-Nov-21 14:11  m  06 19 56.648568 +19 55 46.50164
 2018-Nov-21 14:12  m  06 19 56.627954 +19 55 46.42544
 2018-Nov-21 14:13  m  06 19 56.607341 +19 55 46.34922
 2018-Nov-21 14:14  m  06 19 56.586730 +19 55 46.27297
 2018-Nov-21 14:15  m  06 19 56.566121 +19 55 46.19670
 2018-Nov-21 14:16  m  06 19 56.545513 +19 55 46.12041
 2018-Nov-21 14:17  m  06 19 56.524907 +19 55 46.04409
 2018-Nov-21 14:18  m  06 19 56.504303 +19 55 45.96774
 2018-Nov-21 14:19  m  06 19 56.483700 +19 55 45.89137
 2018-Nov-21 14:20  m  06 19 56.463099 +19 55 45.81497
 2018-Nov-21 14:21  m  06 19 56.442500 +19 55 45.73855
 2018-Nov-21 14:22  m  06 19 56.421902 +19 55 45.66211
 2018-Nov-21 14:23  m  06 19 56.401306 +19 55 45.58564
 2018-Nov-21 14:24  m  06 19 56.380712 +19 55 45.50915
 2018-Nov-21 14:25  m  06 19 56.360120 +19 55 45.43263
 2018-Nov-21 14:26  m  06 19 56.339529 +19 55 45.35609
 2018-Nov-21 14:27  m  06 19 56.318940 +19 55 45.27952
 2018-Nov-21 14:28  m  06 19 56.298354 +19 55 45.20293
 2018-Nov-21 14:29  m  06 19 56.277769 +19 55 45.12631
 2018-Nov-21 14:30  m  06 19 56.257186 +19 55 45.04967
 2018-Nov-21 14:31  m  06 19 56.236605 +19 55 44.97301
 2018-Nov-21 14:32  m  06 19 56.216026 +19 55 44.89632
 2018-Nov-21 14:33  m  06 19 56.195448 +19 55 44.81961
 2018-Nov-21 14:34  m  06 19 56.174873 +19 55 44.74287
 2018-Nov-21 14:35  m  06 19 56.154300 +19 55 44.66611
 2018-Nov-21 14:36  m  06 19 56.133729 +19 55 44.58932
 2018-Nov-21 14:37  m  06 19 56.113160 +19 55 44.51252
 2018-Nov-21 14:38  m  06 19 56.092593 +19 55 44.43568
 2018-Nov-21 14:39  m  06 19 56.072028 +19 55 44.35883
 2018-Nov-21 14:40  m  06 19 56.051466 +19 55 44.28195
 2018-Nov-21 14:41  m  06 19 56.030905 +19 55 44.20505
 2018-Nov-21 14:42  m  06 19 56.010347 +19 55 44.12812
 2018-Nov-21 14:43  m  06 19 55.989791 +19 55 44.05117
 2018-Nov-21 14:44  m  06 19 55.969237 +19 55 43.97420
 2018-Nov-21 14:45  m  06 19 55.948685 +19 55 43.89720
 2018-Nov-21 14:46  m  06 19 55.928136 +19 55 43.82018
 2018-Nov-21 14:47  m  06 19 55.907589 +19 55 43.74314
 2018-Nov-21 14:48  m  06 19 55.887044 +19 55 43.66607
 2018-Nov-21 14:49  m  06 19 55.866501 +19 55 43.58898
 2018-Nov-21 14:50  m  06 19 55.845961 +19 55 43.51187
 2018-Nov-21 14:51  m  06 19 55.825423 +19 55 43.43473
 2018-Nov-21 14:52  m  06 19 55.804888 +19 55 43.35757
 2018-Nov-21 14:53  m  06 19 55.784355 +19 55 43.28039
 2018-Nov-21 14:54  m  06 19 55.763825 +19 55 43.20319
 2018-Nov-21 14:55  m  06 19 55.743297 +19 55 43.12596
 2018-Nov-21 14:56  m  06 19 55.722771 +19 55 43.04871
 2018-Nov-21 14:57  m  06 19 55.702248 +19 55 42.97144
 2018-Nov-21 14:58  m  06 19 55.681727 +19 55 42.89415
 2018-Nov-21 14:59  m  06 19 55.661209 +19 55 42.81683
 2018-Nov-21 15:00  m  06 19 55.640694 +19 55 42.73949
 2018-Nov-21 15:01  m  06 19 55.620181 +19 55 42.66213
 2018-Nov-21 15:02  m  06 19 55.599671 +19 55 42.58475
 2018-Nov-21 15:03  m  06 19 55.579163 +19 55 42.50734
 2018-Nov-21 15:04  m  06 19 55.558658 +19 55 42.42991
 2018-Nov-21 15:05  m  06 19 55.538156 +19 55 42.35246
 2018-Nov-21 15:06  m  06 19 55.517656 +19 55 42.27499
 2018-Nov-21 15:07  m  06 19 55.497159 +19 55 42.19750
 2018-Nov-21 15:08  m  06 19 55.476665 +19 55 42.11998
 2018-Nov-21 15:09  m  06 19 55.456174 +19 55 42.04245
 2018-Nov-21 15:10  m  06 19 55.435685 +19 55 41.96489
 2018-Nov-21 15:11  m  06 19 55.415199 +19 55 41.88731
 2018-Nov-21 15:12  m  06 19 55.394716 +19 55 41.80971
 2018-Nov-21 15:13  m  06 19 55.374236 +19 55 41.73208
 2018-Nov-21 15:14     06 19 55.353759 +19 55 41.65444
 2018-Nov-21 15:15     06 19 55.333284 +19 55 41.57677
 2018-Nov-21 15:16     06 19 55.312812 +19 55 41.49909
 2018-Nov-21 15:17     06 19 55.292344 +19 55 41.42138
 2018-Nov-21 15:18 A   06 19 55.271878 +19 55 41.34365
 2018-Nov-21 15:19 A   06 19 55.251415 +19 55 41.26590
 2018-Nov-21 15:20 A   06 19 55.230955 +19 55 41.18813
 2018-Nov-21 15:21 A   06 19 55.210498 +19 55 41.11034
 2018-Nov-21 15:22 A   06 19 55.190044 +19 55 41.03252
 2018-Nov-21 15:23 A   06 19 55.169594 +19 55 40.95469
 2018-Nov-21 15:24 A   06 19 55.149146 +19 55 40.87684
 2018-Nov-21 15:25 A   06 19 55.128701 +19 55 40.79896
 2018-Nov-21 15:26 A   06 19 55.108259 +19 55 40.72107
 2018-Nov-21 15:27 A   06 19 55.087821 +19 55 40.64315
 2018-Nov-21 15:28 A   06 19 55.067385 +19 55 40.56522
 2018-Nov-21 15:29 A   06 19 55.046953 +19 55 40.48726
 2018-Nov-21 15:30 A   06 19 55.026524 +19 55 40.40929
 2018-Nov-21 15:31 A   06 19 55.006098 +19 55 40.33129
 2018-Nov-21 15:32 A   06 19 54.985675 +19 55 40.25328
 2018-Nov-21 15:33 A   06 19 54.965256 +19 55 40.17524
 2018-Nov-21 15:34 A   06 19 54.944839 +19 55 40.09719
 2018-Nov-21 15:35 A   06 19 54.924426 +19 55 40.01911
 2018-Nov-21 15:36 A   06 19 54.904016 +19 55 39.94102
 2018-Nov-21 15:37 A   06 19 54.883610 +19 55 39.86291
 2018-Nov-21 15:38 A   06 19 54.863207 +19 55 39.78477
 2018-Nov-21 15:39 A   06 19 54.842807 +19 55 39.70662
 2018-Nov-21 15:40 A   06 19 54.822410 +19 55 39.62845
 2018-Nov-21 15:41 A   06 19 54.802017 +19 55 39.55026
 2018-Nov-21 15:42 A   06 19 54.781627 +19 55 39.47205
 2018-Nov-21 15:43 A   06 19 54.761241 +19 55 39.39382
 2018-Nov-21 15:44 N   06 19 54.740858 +19 55 39.31557
 2018-Nov-21 15:45 N   06 19 54.720479 +19 55 39.23731
 2018-Nov-21 15:46 N   06 19 54.700102 +19 55 39.15902
 2018-Nov-21 15:47 N   06 19 54.679730 +19 55 39.08072
 2018-Nov-21 15:48 N   06 19 54.659361 +19 55 39.00240
 2018-Nov-21 15:49 N   06 19 54.638995 +19 55 38.92406
 2018-Nov-21 15:50 N   06 19 54.618633 +19 55 38.84570
 2018-Nov-21 15:51 N   06 19 54.598274 +19 55 38.76732
 2018-Nov-21 15:52 N   06 19 54.577919 +19 55 38.68892
 2018-Nov-21 15:53 N   06 19 54.557568 +19 55 38.61051
 2018-Nov-21 15:54 N   06 19 54.537220 +19 55 38.53208
 2018-Nov-21 15:55 N   06 19 54.516876 +19 55 38.45363
 2018-Nov-21 15:56 N   06 19 54.496535 +19 55 38.37516
 2018-Nov-21 15:57 N   06 19 54.476198 +19 55 38.29668
 2018-Nov-21 15:58 N   06 19 54.455865 +19 55 38.21817
 2018-Nov-21 15:59 N   06 19 54.435535 +19 55 38.13965
 2018-Nov-21 16:00 N   06 19 54.415209 +19 55 38.06112
 2018-Nov-21 16:01 N   06 19 54.394887 +19 55 37.98256
 2018-Nov-21 16:02 N   06 19 54.374569 +19 55 37.90399
 2018-Nov-21 16:03 N   06 19 54.354254 +19 55 37.82540
 2018-Nov-21 16:04 N   06 19 54.333943 +19 55 37.74679
 2018-Nov-21 16:05 N   06 19 54.313635 +19 55 37.66817
 2018-Nov-21 16:06 N   06 19 54.293332 +19 55 37.58953
 2018-Nov-21 16:07 N   06 19 54.273032 +19 55 37.51087
 2018-Nov-21 16:08 N   06 19 54.252736 +19 55 37.43220
